CCSDS_OMM_VERS = 2.0
CREATION_DATE  = 
ORIGINATOR     = 

OBJECT_NAME    = SL-14 R/B
OBJECT_ID      = 1991-042B
CENTER_NAME    = EARTH
REF_FRAME      = TEME
TIME_SYSTEM    = UTC
MEAN_ELEMENT_THEORY = SGP/SGP4

EPOCH          = 2026-01-04T06:27:48.465216
MEAN_MOTION    = 14.81764548
ECCENTRICITY   = .0018571
INCLINATION    = 82.4936
RA_OF_ASC_NODE = 280.5988
ARG_OF_PERICENTER = 92.4371
MEAN_ANOMALY   = 267.8970

EPHEMERIS_TYPE = 0
CLASSIFICATION_TYPE = U
NORAD_CAT_ID   = 21423
ELEMENT_SET_NO = 999
REV_AT_EPOCH   = 84353
BSTAR          = .88539E-4
MEAN_MOTION_DOT = .724E-5
MEAN_MOTION_DDOT = 0

CCSDS_OMM_VERS = 2.0
CREATION_DATE  = 
ORIGINATOR     = 

OBJECT_NAME    = ERS-1
OBJECT_ID      = 1991-050A
CENTER_NAME    = EARTH
REF_FRAME      = TEME
TIME_SYSTEM    = UTC
MEAN_ELEMENT_THEORY = SGP/SGP4

EPOCH          = 2026-01-04T11:14:03.941952
MEAN_MOTION    = 14.39387152
ECCENTRICITY   = .0032549
INCLINATION    = 98.7895
RA_OF_ASC_NODE = 21.0908
ARG_OF_PERICENTER = 34.3790
MEAN_ANOMALY   = 325.9494

EPHEMERIS_TYPE = 0
CLASSIFICATION_TYPE = U
NORAD_CAT_ID   = 21574
ELEMENT_SET_NO = 999
REV_AT_EPOCH   = 80649
BSTAR          = .20099E-3
MEAN_MOTION_DOT = .583E-5
MEAN_MOTION_DDOT = 0

CCSDS_OMM_VERS = 2.0
CREATION_DATE  = 
ORIGINATOR     = 

OBJECT_NAME    = ARIANE 40 R/B
OBJECT_ID      = 1991-050F
CENTER_NAME    = EARTH
REF_FRAME      = TEME
TIME_SYSTEM    = UTC
MEAN_ELEMENT_THEORY = SGP/SGP4

EPOCH          = 2026-01-04T02:48:17.877312
MEAN_MOTION    = 14.42835852
ECCENTRICITY   = .00019946
INCLINATION    = 98.2131
RA_OF_ASC_NODE = 58.7365
ARG_OF_PERICENTER = 267.9463
MEAN_ANOMALY   = 92.1499

EPHEMERIS_TYPE = 0
CLASSIFICATION_TYPE = U
NORAD_CAT_ID   = 21610
ELEMENT_SET_NO = 999
REV_AT_EPOCH   = 80968
BSTAR          = .19825388E-3
MEAN_MOTION_DOT = .62E-5
MEAN_MOTION_DDOT = 0

CCSDS_OMM_VERS = 2.0
CREATION_DATE  = 
ORIGINATOR     = 

OBJECT_NAME    = INTERCOSMOS 25
OBJECT_ID      = 1991-086A
CENTER_NAME    = EARTH
REF_FRAME      = TEME
TIME_SYSTEM    = UTC
MEAN_ELEMENT_THEORY = SGP/SGP4

EPOCH          = 2026-01-04T08:09:15.156000
MEAN_MOTION    = 12.11823726
ECCENTRICITY   = .1485927
INCLINATION    = 82.6081
RA_OF_ASC_NODE = 348.9040
ARG_OF_PERICENTER = 255.6502
MEAN_ANOMALY   = 87.5597

EPHEMERIS_TYPE = 0
CLASSIFICATION_TYPE = U
NORAD_CAT_ID   = 21819
ELEMENT_SET_NO = 999
REV_AT_EPOCH   = 48889
BSTAR          = .38538E-3
MEAN_MOTION_DOT = .1934E-4
MEAN_MOTION_DDOT = 0

CCSDS_OMM_VERS = 2.0
CREATION_DATE  = 
ORIGINATOR     = 

OBJECT_NAME    = SL-8 R/B
OBJECT_ID      = 1992-008B
CENTER_NAME    = EARTH
REF_FRAME      = TEME
TIME_SYSTEM    = UTC
MEAN_ELEMENT_THEORY = SGP/SGP4

EPOCH          = 2026-01-04T09:04:03.406944
MEAN_MOTION    = 13.75964451
ECCENTRICITY   = .0033862
INCLINATION    = 82.9282
RA_OF_ASC_NODE = 315.6089
ARG_OF_PERICENTER = 316.1160
MEAN_ANOMALY   = 157.6556

EPHEMERIS_TYPE = 0
CLASSIFICATION_TYPE = U
NORAD_CAT_ID   = 21876
ELEMENT_SET_NO = 999
REV_AT_EPOCH   = 70057
BSTAR          = .12215E-3
MEAN_MOTION_DOT = .134E-5
MEAN_MOTION_DDOT = 0

CCSDS_OMM_VERS = 2.0
CREATION_DATE  = 
ORIGINATOR     = 

OBJECT_NAME    = SL-8 R/B
OBJECT_ID      = 1992-020B
CENTER_NAME    = EARTH
REF_FRAME      = TEME
TIME_SYSTEM    = UTC
MEAN_ELEMENT_THEORY = SGP/SGP4

EPOCH          = 2026-01-04T12:50:56.929632
MEAN_MOTION    = 13.75534390
ECCENTRICITY   = .0030091
INCLINATION    = 82.9291
RA_OF_ASC_NODE = 201.3893
ARG_OF_PERICENTER = 115.8896
MEAN_ANOMALY   = 302.4520

EPHEMERIS_TYPE = 0
CLASSIFICATION_TYPE = U
NORAD_CAT_ID   = 21938
ELEMENT_SET_NO = 999
REV_AT_EPOCH   = 69231
BSTAR          = .18866E-3
MEAN_MOTION_DOT = .198E-5
MEAN_MOTION_DDOT = 0

CCSDS_OMM_VERS = 2.0
CREATION_DATE  = 
ORIGINATOR     = 

OBJECT_NAME    = USA 81
OBJECT_ID      = 1992-023A
CENTER_NAME    = EARTH
REF_FRAME      = TEME
TIME_SYSTEM    = UTC
MEAN_ELEMENT_THEORY = SGP/SGP4

EPOCH          = 2026-01-04T12:41:27.466368
MEAN_MOTION    = 14.32337930
ECCENTRICITY   = .0001218
INCLINATION    = 85.0090
RA_OF_ASC_NODE = 168.4330
ARG_OF_PERICENTER = 112.2288
MEAN_ANOMALY   = 247.9034

EPHEMERIS_TYPE = 0
CLASSIFICATION_TYPE = U
NORAD_CAT_ID   = 21949
ELEMENT_SET_NO = 999
REV_AT_EPOCH   = 8560
BSTAR          = .11011E-3
MEAN_MOTION_DOT = .317E-5
MEAN_MOTION_DDOT = 0

CCSDS_OMM_VERS = 2.0
CREATION_DATE  = 
ORIGINATOR     = 

OBJECT_NAME    = COSMOS 2219
OBJECT_ID      = 1992-076A
CENTER_NAME    = EARTH
REF_FRAME      = TEME
TIME_SYSTEM    = UTC
MEAN_ELEMENT_THEORY = SGP/SGP4

EPOCH          = 2026-01-04T12:03:46.278144
MEAN_MOTION    = 14.14077471
ECCENTRICITY   = .0020161
INCLINATION    = 71.0606
RA_OF_ASC_NODE = 152.2489
ARG_OF_PERICENTER = 295.4304
MEAN_ANOMALY   = 64.4732

EPHEMERIS_TYPE = 0
CLASSIFICATION_TYPE = U
NORAD_CAT_ID   = 22219
ELEMENT_SET_NO = 999
REV_AT_EPOCH   = 70930
BSTAR          = .19065E-3
MEAN_MOTION_DOT = .316E-5
MEAN_MOTION_DDOT = 0

CCSDS_OMM_VERS = 2.0
CREATION_DATE  = 
ORIGINATOR     = 

OBJECT_NAME    = SL-16 R/B
OBJECT_ID      = 1992-076B
CENTER_NAME    = EARTH
REF_FRAME      = TEME
TIME_SYSTEM    = UTC
MEAN_ELEMENT_THEORY = SGP/SGP4

EPOCH          = 2026-01-04T07:53:50.661312
MEAN_MOTION    = 14.16845405
ECCENTRICITY   = .0013699
INCLINATION    = 71.0011
RA_OF_ASC_NODE = 323.9472
ARG_OF_PERICENTER = 203.2447
MEAN_ANOMALY   = 318.4304

EPHEMERIS_TYPE = 0
CLASSIFICATION_TYPE = U
NORAD_CAT_ID   = 22220
ELEMENT_SET_NO = 999
REV_AT_EPOCH   = 71271
BSTAR          = -.33698E-5
MEAN_MOTION_DOT = -.55E-6
MEAN_MOTION_DDOT = 0

CCSDS_OMM_VERS = 2.0
CREATION_DATE  = 
ORIGINATOR     = 

OBJECT_NAME    = COSMOS 2221
OBJECT_ID      = 1992-080A
CENTER_NAME    = EARTH
REF_FRAME      = TEME
TIME_SYSTEM    = UTC
MEAN_ELEMENT_THEORY = SGP/SGP4

EPOCH          = 2026-01-04T10:16:54.878880
MEAN_MOTION    = 14.95879574
ECCENTRICITY   = .0015946
INCLINATION    = 82.5050
RA_OF_ASC_NODE = 340.6061
ARG_OF_PERICENTER = 52.9737
MEAN_ANOMALY   = 307.2941

EPHEMERIS_TYPE = 0
CLASSIFICATION_TYPE = U
NORAD_CAT_ID   = 22236
ELEMENT_SET_NO = 999
REV_AT_EPOCH   = 77118
BSTAR          = .27392E-3
MEAN_MOTION_DOT = .3095E-4
MEAN_MOTION_DDOT = 0

CCSDS_OMM_VERS = 2.0
CREATION_DATE  = 
ORIGINATOR     = 

OBJECT_NAME    = SL-16 R/B
OBJECT_ID      = 1992-093B
CENTER_NAME    = EARTH
REF_FRAME      = TEME
TIME_SYSTEM    = UTC
MEAN_ELEMENT_THEORY = SGP/SGP4

EPOCH          = 2026-01-04T12:00:08.825760
MEAN_MOTION    = 14.15434037
ECCENTRICITY   = .0003106
INCLINATION    = 71.0210
RA_OF_ASC_NODE = 139.0175
ARG_OF_PERICENTER = 9.9500
MEAN_ANOMALY   = 350.1684

EPHEMERIS_TYPE = 0
CLASSIFICATION_TYPE = U
NORAD_CAT_ID   = 22285
ELEMENT_SET_NO = 999
REV_AT_EPOCH   = 70407
BSTAR          = -.41461E-4
MEAN_MOTION_DOT = -.129E-5
MEAN_MOTION_DDOT = 0

CCSDS_OMM_VERS = 2.0
CREATION_DATE  = 
ORIGINATOR     = 

OBJECT_NAME    = COSMOS 2228
OBJECT_ID      = 1992-094A
CENTER_NAME    = EARTH
REF_FRAME      = TEME
TIME_SYSTEM    = UTC
MEAN_ELEMENT_THEORY = SGP/SGP4

EPOCH          = 2026-01-04T11:40:53.553216
MEAN_MOTION    = 14.96861942
ECCENTRICITY   = .0018579
INCLINATION    = 82.5199
RA_OF_ASC_NODE = 298.7696
ARG_OF_PERICENTER = 152.7281
MEAN_ANOMALY   = 207.4921

EPHEMERIS_TYPE = 0
CLASSIFICATION_TYPE = U
NORAD_CAT_ID   = 22286
ELEMENT_SET_NO = 999
REV_AT_EPOCH   = 76645
BSTAR          = .33181E-3
MEAN_MOTION_DOT = .3842E-4
MEAN_MOTION_DDOT = 0

