SL-14 R/B               
1 21423U 91042B   26004.26931094  .00000724  00000+0  88539-4 0  9993
2 21423  82.4936 280.5988 0018571  92.4371 267.8970 14.81764548843534
ERS-1                   
1 21574U 91050A   26004.46810118  .00000583  00000+0  20099-3 0  9993
2 21574  98.7895  21.0908 0032549  34.3790 325.9494 14.39387152806492
ARIANE 40 R/B           
1 21610U 91050F   26004.11687358  .00000620  00000+0  19825-3 0  9991
2 21610  98.2131  58.7365 0001994 267.9463  92.1499 14.42835852809687
INTERCOSMOS 25          
1 21819U 91086A   26004.33975875  .00001934  00000+0  38538-3 0  9990
2 21819  82.6081 348.9040 1485927 255.6502  87.5597 12.11823726488898
SL-8 R/B                
1 21876U 92008B   26004.37781721  .00000134  00000+0  12215-3 0  9992
2 21876  82.9282 315.6089 0033862 316.1160 157.6556 13.75964451700578
SL-8 R/B                
1 21938U 92020B   26004.53538113  .00000198  00000+0  18866-3 0  9996
2 21938  82.9291 201.3893 0030091 115.8896 302.4520 13.75534390692310
USA 81                  
1 21949U 92023A   26004.52879012  .00000317  00000+0  11011-3 0  9994
2 21949  85.0090 168.4330 0001218 112.2288 247.9034 14.32337930 85603
COSMOS 2219             
1 22219U 92076A   26004.50261896  .00000316  00000+0  19065-3 0  9992
2 22219  71.0606 152.2489 0020161 295.4304  64.4732 14.14077471709307
SL-16 R/B               
1 22220U 92076B   26004.32905858 -.00000055  00000+0 -33698-5 0  9999
2 22220  71.0011 323.9472 0013699 203.2447 318.4304 14.16845405712719
COSMOS 2221             
1 22236U 92080A   26004.42841295  .00003095  00000+0  27392-3 0  9993
2 22236  82.5050 340.6061 0015946  52.9737 307.2941 14.95879574771184
SL-16 R/B               
1 22285U 92093B   26004.50010215 -.00000129  00000+0 -41461-4 0  9991
2 22285  71.0210 139.0175 0003106   9.9500 350.1684 14.15434037704078
COSMOS 2228             
1 22286U 92094A   26004.48673094  .00003842  00000+0  33181-3 0  9992
2 22286  82.5199 298.7696 0018579 152.7281 207.4921 14.96861942766452
